LYNK TOWER 4            
1 55034U 23001AB  26068.67743801  .00009160  00000+0  30014-3 0  9997
2 55034  97.3324 128.5940 0010321 112.3386 247.8950 15.31819885176588
STARLINK-35753          
1 66232U 25244AC  26068.74811663  .00031434  00000+0  10676-2 0  9990
2 66232  53.1567 229.9765 0001088 145.1554 214.9518 15.30242286 21668
