[{"OBJECT_NAME":"LYNK TOWER 4","OBJECT_ID":"2023-001AB","EPOCH":"2026-03-09T16:15:30.644928","MEAN_MOTION":15.31819885,"ECCENTRICITY":0.00103213,"INCLINATION":97.3324,"RA_OF_ASC_NODE":128.594,"ARG_OF_PERICENTER":112.3386,"MEAN_ANOMALY":247.895,"EPHEMERIS_TYPE":0,"CLASSIFICATION_TYPE":"U","NORAD_CAT_ID":55034,"ELEMENT_SET_NO":999,"REV_AT_EPOCH":17658,"BSTAR":0.00030013829,"MEAN_MOTION_DOT":9.16e-5,"MEAN_MOTION_DDOT":0},{"OBJECT_NAME":"STARLINK-35753","OBJECT_ID":"2025-244AC","EPOCH":"2026-03-09T17:57:17.277696","MEAN_MOTION":15.30242286,"ECCENTRICITY":0.00010876,"INCLINATION":53.1567,"RA_OF_ASC_NODE":229.9765,"ARG_OF_PERICENTER":145.1554,"MEAN_ANOMALY":214.9518,"EPHEMERIS_TYPE":0,"CLASSIFICATION_TYPE":"U","NORAD_CAT_ID":66232,"ELEMENT_SET_NO":999,"REV_AT_EPOCH":2166,"BSTAR":0.0010675584,"MEAN_MOTION_DOT":0.00031434,"MEAN_MOTION_DDOT":0}]
